KUIPER-00083            
1 64829U 25151P   26064.98375572 -.00000379  00000+0 -20743-4 0  9997
2 64829  51.9029 311.9815 0000884  91.0670 269.0394 14.79929733 36015
KUIPER-00084            
1 64830U 25151Q   26064.90557850  .00005727  00000+0  78191-3 0  9991
2 64830  51.9041 322.3095 0001680 189.6821 170.4109 14.79806868 34676
KUIPER-00085            
1 64831U 25151R   26064.95810963  .00020488  00000+0  27111-2 0  9990
2 64831  51.9065 304.6317 0000581 217.3050 142.7872 14.79889905 34925
KUIPER-00086            
1 64832U 25151S   26064.87977200 -.00000466  00000+0 -32183-4 0  9993
2 64832  51.9005 314.9468 0000980  80.0924 280.0149 14.79924558 34779
KUIPER-00087            
1 64833U 25151T   26064.33335647 -.00049162  00000+0 -64540-2 0  9994
2 64833  51.8988 299.8452 0000800 170.0130  56.4172 14.80017017  5508
KUIPER-00089            
1 64834U 25151U   26064.89192437 -.00037760  00000+0 -49612-2 0  9998
2 64834  51.8988 302.3708 0000814  30.0420 330.0589 14.79854220 34952
KUIPER-00090            
1 64835U 25151V   26064.63123153  .00000026  00000+0  32375-4 0  9993
2 64835  51.8958 296.0696 0000837 104.9584 255.1471 14.79924281 35012
KUIPER-00091            
1 64836U 25151W   26064.89660269  .00004556  00000+0  62768-3 0  9996
2 64836  51.9000 299.8784 0001064 109.4477 250.6601 14.79831332 34989
KUIPER-00092            
1 64837U 25151X   26064.88782595 -.00003651  00000+0 -45021-3 0  9993
2 64837  51.9020 307.4064 0001052 123.7879 236.3184 14.79923933 36091
KUIPER-00093            
1 64838U 25151Y   26064.88490689  .00004342  00000+0  59693-3 0  9990
2 64838  51.9002 309.9006 0000902  95.2778 264.8287 14.80028069 34848
KUIPER-00094            
1 64839U 25151Z   26064.32734483  .00009519  00000+0  69539-3 0  9994
2 64839  51.8884 282.4125 0005424 272.5356  87.4996 15.04241205 35189
KUIPER-00081            
1 65132U 25171A   26064.80517832 -.00000263  00000+0 -55363-5 0  9994
2 65132  51.9007 165.2503 0000403  68.6133 291.4872 14.79857478 32465
KUIPER-00088            
1 65133U 25171B   26064.91668981  .00012928  00000+0  18591-2 0  9997
2 65133  51.8989 182.1966 0001162  93.1074 277.3020 14.76659263  5585
KUIPER-00095            
1 65134U 25171C   26064.91668981  .00058949  00000+0  73113-2 0  9992
2 65134  51.8981 162.4510 0001278 139.8805  20.0704 14.82069699  5589
KUIPER-00096            
1 65135U 25171D   26064.55805980  .00001770  00000+0  26109-3 0  9999
2 65135  51.8984 176.3521 0000301 123.0177 237.0815 14.79933095 32288
KUIPER-00097            
1 65136U 25171E   26064.62290610 -.00000398  00000+0 -23209-4 0  9992
2 65136  51.9017 178.6942 0000391  96.2614 263.8393 14.79922048 32245
KUIPER-00098            
1 65137U 25171F   26064.62014757  .00007301  00000+0  98446-3 0  9992
2 65137  51.9011 181.0832 0001877 148.9196 211.1877 14.79984351 31568
