[{"OBJECT_NAME":"KUIPER-00083","OBJECT_ID":"2025-151P","EPOCH":"2026-03-05T23:36:36.494208","MEAN_MOTION":14.79929733,"ECCENTRICITY":8.848e-5,"INCLINATION":51.9029,"RA_OF_ASC_NODE":311.9815,"ARG_OF_PERICENTER":91.067,"MEAN_ANOMALY":269.0394,"EPHEMERIS_TYPE":0,"CLASSIFICATION_TYPE":"U","NORAD_CAT_ID":64829,"ELEMENT_SET_NO":999,"REV_AT_EPOCH":3601,"BSTAR":-2.074259e-5,"MEAN_MOTION_DOT":-3.79e-6,"MEAN_MOTION_DDOT":0},{"OBJECT_NAME":"KUIPER-00084","OBJECT_ID":"2025-151Q","EPOCH":"2026-03-05T21:44:01.982400","MEAN_MOTION":14.79806868,"ECCENTRICITY":0.00016808,"INCLINATION":51.9041,"RA_OF_ASC_NODE":322.3095,"ARG_OF_PERICENTER":189.6821,"MEAN_ANOMALY":170.4109,"EPHEMERIS_TYPE":0,"CLASSIFICATION_TYPE":"U","NORAD_CAT_ID":64830,"ELEMENT_SET_NO":999,"REV_AT_EPOCH":3467,"BSTAR":0.00078190832,"MEAN_MOTION_DOT":5.727e-5,"MEAN_MOTION_DDOT":0},{"OBJECT_NAME":"KUIPER-00085","OBJECT_ID":"2025-151R","EPOCH":"2026-03-05T22:59:40.672032","MEAN_MOTION":14.79889905,"ECCENTRICITY":5.813e-5,"INCLINATION":51.9065,"RA_OF_ASC_NODE":304.6317,"ARG_OF_PERICENTER":217.305,"MEAN_ANOMALY":142.7872,"EPHEMERIS_TYPE":0,"CLASSIFICATION_TYPE":"U","NORAD_CAT_ID":64831,"ELEMENT_SET_NO":999,"REV_AT_EPOCH":3492,"BSTAR":0.0027110574,"MEAN_MOTION_DOT":0.00020488,"MEAN_MOTION_DDOT":0},{"OBJECT_NAME":"KUIPER-00086","OBJECT_ID":"2025-151S","EPOCH":"2026-03-05T21:06:52.300800","MEAN_MOTION":14.79924558,"ECCENTRICITY":9.801e-5,"INCLINATION":51.9005,"RA_OF_ASC_NODE":314.9468,"ARG_OF_PERICENTER":80.0924,"MEAN_ANOMALY":280.0149,"EPHEMERIS_TYPE":0,"CLASSIFICATION_TYPE":"U","NORAD_CAT_ID":64832,"ELEMENT_SET_NO":999,"REV_AT_EPOCH":3477,"BSTAR":-3.2183367e-5,"MEAN_MOTION_DOT":-4.66e-6,"MEAN_MOTION_DDOT":0},{"OBJECT_NAME":"KUIPER-00087","OBJECT_ID":"2025-151T","EPOCH":"2026-03-05T08:00:01.999008","MEAN_MOTION":14.80017017,"ECCENTRICITY":8.0e-5,"INCLINATION":51.8988,"RA_OF_ASC_NODE":299.8452,"ARG_OF_PERICENTER":170.013,"MEAN_ANOMALY":56.4172,"EPHEMERIS_TYPE":0,"CLASSIFICATION_TYPE":"U","NORAD_CAT_ID":64833,"ELEMENT_SET_NO":999,"REV_AT_EPOCH":550,"BSTAR":-0.006454,"MEAN_MOTION_DOT":-0.00049162,"MEAN_MOTION_DDOT":0},{"OBJECT_NAME":"KUIPER-00089","OBJECT_ID":"2025-151U","EPOCH":"2026-03-05T21:24:22.265568","MEAN_MOTION":14.7985422,"ECCENTRICITY":8.143e-5,"INCLINATION":51.8988,"RA_OF_ASC_NODE":302.3708,"ARG_OF_PERICENTER":30.042,"MEAN_ANOMALY":330.0589,"EPHEMERIS_TYPE":0,"CLASSIFICATION_TYPE":"U","NORAD_CAT_ID":64834,"ELEMENT_SET_NO":999,"REV_AT_EPOCH":3495,"BSTAR":-0.004961236,"MEAN_MOTION_DOT":-0.0003776,"MEAN_MOTION_DDOT":0},{"OBJECT_NAME":"KUIPER-00090","OBJECT_ID":"2025-151V","EPOCH":"2026-03-05T15:08:58.404192","MEAN_MOTION":14.79924281,"ECCENTRICITY":8.37e-5,"INCLINATION":51.8958,"RA_OF_ASC_NODE":296.0696,"ARG_OF_PERICENTER":104.9584,"MEAN_ANOMALY":255.1471,"EPHEMERIS_TYPE":0,"CLASSIFICATION_TYPE":"U","NORAD_CAT_ID":64835,"ELEMENT_SET_NO":999,"REV_AT_EPOCH":3501,"BSTAR":3.2375e-5,"MEAN_MOTION_DOT":2.6e-7,"MEAN_MOTION_DDOT":0},{"OBJECT_NAME":"KUIPER-00091","OBJECT_ID":"2025-151W","EPOCH":"2026-03-05T21:31:06.472416","MEAN_MOTION":14.79831332,"ECCENTRICITY":0.0001064,"INCLINATION":51.9,"RA_OF_ASC_NODE":299.8784,"ARG_OF_PERICENTER":109.4477,"MEAN_ANOMALY":250.6601,"EPHEMERIS_TYPE":0,"CLASSIFICATION_TYPE":"U","NORAD_CAT_ID":64836,"ELEMENT_SET_NO":999,"REV_AT_EPOCH":3498,"BSTAR":0.0006276772,"MEAN_MOTION_DOT":4.556e-5,"MEAN_MOTION_DDOT":0},{"OBJECT_NAME":"KUIPER-00092","OBJECT_ID":"2025-151X","EPOCH":"2026-03-05T21:18:28.162080","MEAN_MOTION":14.79923933,"ECCENTRICITY":0.00010529,"INCLINATION":51.902,"RA_OF_ASC_NODE":307.4064,"ARG_OF_PERICENTER":123.7879,"MEAN_ANOMALY":236.3184,"EPHEMERIS_TYPE":0,"CLASSIFICATION_TYPE":"U","NORAD_CAT_ID":64837,"ELEMENT_SET_NO":999,"REV_AT_EPOCH":3609,"BSTAR":-0.00045021307,"MEAN_MOTION_DOT":-3.651e-5,"MEAN_MOTION_DDOT":0},{"OBJECT_NAME":"KUIPER-00093","OBJECT_ID":"2025-151Y","EPOCH":"2026-03-05T21:14:15.955296","MEAN_MOTION":14.80028069,"ECCENTRICITY":9.023e-5,"INCLINATION":51.9002,"RA_OF_ASC_NODE":309.9006,"ARG_OF_PERICENTER":95.2778,"MEAN_ANOMALY":264.8287,"EPHEMERIS_TYPE":0,"CLASSIFICATION_TYPE":"U","NORAD_CAT_ID":64838,"ELEMENT_SET_NO":999,"REV_AT_EPOCH":3484,"BSTAR":0.00059693238,"MEAN_MOTION_DOT":4.342e-5,"MEAN_MOTION_DDOT":0},{"OBJECT_NAME":"KUIPER-00094","OBJECT_ID":"2025-151Z","EPOCH":"2026-03-05T07:51:22.593312","MEAN_MOTION":15.04241205,"ECCENTRICITY":0.0005424,"INCLINATION":51.8884,"RA_OF_ASC_NODE":282.4125,"ARG_OF_PERICENTER":272.5356,"MEAN_ANOMALY":87.4996,"EPHEMERIS_TYPE":0,"CLASSIFICATION_TYPE":"U","NORAD_CAT_ID":64839,"ELEMENT_SET_NO":999,"REV_AT_EPOCH":3518,"BSTAR":0.00069539,"MEAN_MOTION_DOT":9.519e-5,"MEAN_MOTION_DDOT":0},{"OBJECT_NAME":"KUIPER-00081","OBJECT_ID":"2025-171A","EPOCH":"2026-03-05T19:19:27.406848","MEAN_MOTION":14.79857478,"ECCENTRICITY":4.035e-5,"INCLINATION":51.9007,"RA_OF_ASC_NODE":165.2503,"ARG_OF_PERICENTER":68.6133,"MEAN_ANOMALY":291.4872,"EPHEMERIS_TYPE":0,"CLASSIFICATION_TYPE":"U","NORAD_CAT_ID":65132,"ELEMENT_SET_NO":999,"REV_AT_EPOCH":3246,"BSTAR":-5.536326e-6,"MEAN_MOTION_DOT":-2.63e-6,"MEAN_MOTION_DDOT":0},{"OBJECT_NAME":"KUIPER-00088","OBJECT_ID":"2025-171B","EPOCH":"2026-03-05T22:00:01.999584","MEAN_MOTION":14.76659263,"ECCENTRICITY":0.00011626,"INCLINATION":51.8989,"RA_OF_ASC_NODE":182.1966,"ARG_OF_PERICENTER":93.1074,"MEAN_ANOMALY":277.302,"EPHEMERIS_TYPE":0,"CLASSIFICATION_TYPE":"U","NORAD_CAT_ID":65133,"ELEMENT_SET_NO":999,"REV_AT_EPOCH":558,"BSTAR":0.0018591185,"MEAN_MOTION_DOT":0.00012928,"MEAN_MOTION_DDOT":0},{"OBJECT_NAME":"KUIPER-00095","OBJECT_ID":"2025-171C","EPOCH":"2026-03-05T22:00:01.999584","MEAN_MOTION":14.82069699,"ECCENTRICITY":0.00012788,"INCLINATION":51.8981,"RA_OF_ASC_NODE":162.451,"ARG_OF_PERICENTER":139.8805,"MEAN_ANOMALY":20.0704,"EPHEMERIS_TYPE":0,"CLASSIFICATION_TYPE":"U","NORAD_CAT_ID":65134,"ELEMENT_SET_NO":999,"REV_AT_EPOCH":558,"BSTAR":0.0073113433,"MEAN_MOTION_DOT":0.00058949,"MEAN_MOTION_DDOT":0},{"OBJECT_NAME":"KUIPER-00096","OBJECT_ID":"2025-171D","EPOCH":"2026-03-05T13:23:36.366720","MEAN_MOTION":14.79933095,"ECCENTRICITY":3.01e-5,"INCLINATION":51.8984,"RA_OF_ASC_NODE":176.3521,"ARG_OF_PERICENTER":123.0177,"MEAN_ANOMALY":237.0815,"EPHEMERIS_TYPE":0,"CLASSIFICATION_TYPE":"U","NORAD_CAT_ID":65135,"ELEMENT_SET_NO":999,"REV_AT_EPOCH":3228,"BSTAR":0.00026109,"MEAN_MOTION_DOT":1.77e-5,"MEAN_MOTION_DDOT":0},{"OBJECT_NAME":"KUIPER-00097","OBJECT_ID":"2025-171E","EPOCH":"2026-03-05T14:56:59.087040","MEAN_MOTION":14.79922048,"ECCENTRICITY":3.917e-5,"INCLINATION":51.9017,"RA_OF_ASC_NODE":178.6942,"ARG_OF_PERICENTER":96.2614,"MEAN_ANOMALY":263.8393,"EPHEMERIS_TYPE":0,"CLASSIFICATION_TYPE":"U","NORAD_CAT_ID":65136,"ELEMENT_SET_NO":999,"REV_AT_EPOCH":3224,"BSTAR":-2.3208671e-5,"MEAN_MOTION_DOT":-3.98e-6,"MEAN_MOTION_DDOT":0},{"OBJECT_NAME":"KUIPER-00098","OBJECT_ID":"2025-171F","EPOCH":"2026-03-05T14:53:00.750048","MEAN_MOTION":14.79984351,"ECCENTRICITY":0.0001877,"INCLINATION":51.9011,"RA_OF_ASC_NODE":181.0832,"ARG_OF_PERICENTER":148.9196,"MEAN_ANOMALY":211.1877,"EPHEMERIS_TYPE":0,"CLASSIFICATION_TYPE":"U","NORAD_CAT_ID":65137,"ELEMENT_SET_NO":999,"REV_AT_EPOCH":3156,"BSTAR":0.00098446,"MEAN_MOTION_DOT":7.301e-5,"MEAN_MOTION_DDOT":0}]
